{"fetched_at":"2026-07-08T07:03:57.858Z","source":"https://celestrak.org/NORAD/elements/gp.php?NAME=HAWK&FORMAT=JSON","constellation":"hawkeye-360","records":[{"OBJECT_NAME":"HAWK-7B","OBJECT_ID":"2023-054R","EPOCH":"2026-07-07T17:54:15.947424","CLASSIFICATION_TYPE":"U","MEAN_MOTION":15.2758296,"ECCENTRICITY":0.0002127,"INCLINATION":97.2701,"RA_OF_ASC_NODE":73.8317,"ARG_OF_PERICENTER":30.1406,"MEAN_ANOMALY":329.9955,"EPHEMERIS_TYPE":0,"NORAD_CAT_ID":56193,"ELEMENT_SET_NO":999,"REV_AT_EPOCH":18016,"BSTAR":0.00014312,"MEAN_MOTION_DOT":0.00003788,"MEAN_MOTION_DDOT":0},{"OBJECT_NAME":"HAWK-7C","OBJECT_ID":"2023-054Y","EPOCH":"2026-07-07T17:54:06.320736","CLASSIFICATION_TYPE":"U","MEAN_MOTION":15.27581486,"ECCENTRICITY":0.0001795,"INCLINATION":97.2677,"RA_OF_ASC_NODE":74.5939,"ARG_OF_PERICENTER":17.0088,"MEAN_ANOMALY":343.1211,"EPHEMERIS_TYPE":0,"NORAD_CAT_ID":56200,"ELEMENT_SET_NO":999,"REV_AT_EPOCH":18016,"BSTAR":0.00014051,"MEAN_MOTION_DOT":0.00003717,"MEAN_MOTION_DDOT":0},{"OBJECT_NAME":"HAWK-8A","OBJECT_ID":"2024-066B","EPOCH":"2026-07-07T08:51:11.968128","CLASSIFICATION_TYPE":"U","MEAN_MOTION":14.99271545,"ECCENTRICITY":0.00023384,"INCLINATION":45.5938,"RA_OF_ASC_NODE":172.2879,"ARG_OF_PERICENTER":184.9013,"MEAN_ANOMALY":175.1846,"EPHEMERIS_TYPE":0,"NORAD_CAT_ID":59443,"ELEMENT_SET_NO":999,"REV_AT_EPOCH":12286,"BSTAR":0.00011193663,"MEAN_MOTION_DOT":0.00001155,"MEAN_MOTION_DDOT":0},{"OBJECT_NAME":"HAWK-8B","OBJECT_ID":"2024-066D","EPOCH":"2026-07-07T10:27:48.426624","CLASSIFICATION_TYPE":"U","MEAN_MOTION":14.99271083,"ECCENTRICITY":0.00018808,"INCLINATION":45.6168,"RA_OF_ASC_NODE":173.9055,"ARG_OF_PERICENTER":183.862,"MEAN_ANOMALY":176.2247,"EPHEMERIS_TYPE":0,"NORAD_CAT_ID":59445,"ELEMENT_SET_NO":999,"REV_AT_EPOCH":12286,"BSTAR":0.00049628694,"MEAN_MOTION_DOT":0.00005918,"MEAN_MOTION_DDOT":0},{"OBJECT_NAME":"HAWK-9A","OBJECT_ID":"2024-066E","EPOCH":"2026-07-07T07:48:14.744160","CLASSIFICATION_TYPE":"U","MEAN_MOTION":14.991986,"ECCENTRICITY":0.00020403,"INCLINATION":45.6083,"RA_OF_ASC_NODE":173.1431,"ARG_OF_PERICENTER":166.5727,"MEAN_ANOMALY":193.5209,"EPHEMERIS_TYPE":0,"NORAD_CAT_ID":59446,"ELEMENT_SET_NO":999,"REV_AT_EPOCH":12285,"BSTAR":0.0001176553,"MEAN_MOTION_DOT":0.00001223,"MEAN_MOTION_DDOT":0},{"OBJECT_NAME":"HAWK-9C","OBJECT_ID":"2024-066G","EPOCH":"2026-07-07T03:00:46.497024","CLASSIFICATION_TYPE":"U","MEAN_MOTION":14.99201266,"ECCENTRICITY":0.00018663,"INCLINATION":45.6044,"RA_OF_ASC_NODE":173.2768,"ARG_OF_PERICENTER":144.2016,"MEAN_ANOMALY":215.8991,"EPHEMERIS_TYPE":0,"NORAD_CAT_ID":59448,"ELEMENT_SET_NO":999,"REV_AT_EPOCH":12282,"BSTAR":0.00012531446,"MEAN_MOTION_DOT":0.00001318,"MEAN_MOTION_DDOT":0},{"OBJECT_NAME":"HAWK-8C","OBJECT_ID":"2024-066H","EPOCH":"2026-07-07T10:27:04.451616","CLASSIFICATION_TYPE":"U","MEAN_MOTION":14.99276386,"ECCENTRICITY":0.00022222,"INCLINATION":45.6051,"RA_OF_ASC_NODE":172.9334,"ARG_OF_PERICENTER":197.7538,"MEAN_ANOMALY":162.3266,"EPHEMERIS_TYPE":0,"NORAD_CAT_ID":59449,"ELEMENT_SET_NO":999,"REV_AT_EPOCH":12286,"BSTAR":0.00013229917,"MEAN_MOTION_DOT":0.00001408,"MEAN_MOTION_DDOT":0},{"OBJECT_NAME":"HAWK-9B","OBJECT_ID":"2024-066J","EPOCH":"2026-07-07T09:24:37.570464","CLASSIFICATION_TYPE":"U","MEAN_MOTION":14.99199766,"ECCENTRICITY":0.00020628,"INCLINATION":45.6122,"RA_OF_ASC_NODE":173.7316,"ARG_OF_PERICENTER":136.1055,"MEAN_ANOMALY":223.999,"EPHEMERIS_TYPE":0,"NORAD_CAT_ID":59450,"ELEMENT_SET_NO":999,"REV_AT_EPOCH":12286,"BSTAR":0.0001211561,"MEAN_MOTION_DOT":0.00001267,"MEAN_MOTION_DDOT":0},{"OBJECT_NAME":"HAWK-10A","OBJECT_ID":"2024-149CA","EPOCH":"2026-07-07T18:18:57.398976","CLASSIFICATION_TYPE":"U","MEAN_MOTION":14.96579003,"ECCENTRICITY":0.000373,"INCLINATION":97.6892,"RA_OF_ASC_NODE":264.321,"ARG_OF_PERICENTER":31.0488,"MEAN_ANOMALY":329.0954,"EPHEMERIS_TYPE":0,"NORAD_CAT_ID":60540,"ELEMENT_SET_NO":999,"REV_AT_EPOCH":10306,"BSTAR":0.00016561,"MEAN_MOTION_DOT":0.00001828,"MEAN_MOTION_DDOT":0},{"OBJECT_NAME":"HAWK-10B","OBJECT_ID":"2024-149CF","EPOCH":"2026-07-07T18:18:45.334080","CLASSIFICATION_TYPE":"U","MEAN_MOTION":14.96578793,"ECCENTRICITY":0.0006105,"INCLINATION":97.6813,"RA_OF_ASC_NODE":263.6553,"ARG_OF_PERICENTER":40.0936,"MEAN_ANOMALY":320.0735,"EPHEMERIS_TYPE":0,"NORAD_CAT_ID":60545,"ELEMENT_SET_NO":999,"REV_AT_EPOCH":10306,"BSTAR":0.00016202,"MEAN_MOTION_DOT":0.00001787,"MEAN_MOTION_DDOT":0},{"OBJECT_NAME":"HAWK-10C","OBJECT_ID":"2024-149DM","EPOCH":"2026-07-07T18:19:13.776096","CLASSIFICATION_TYPE":"U","MEAN_MOTION":14.96578612,"ECCENTRICITY":0.0003306,"INCLINATION":97.6731,"RA_OF_ASC_NODE":262.9734,"ARG_OF_PERICENTER":21.1702,"MEAN_ANOMALY":338.9656,"EPHEMERIS_TYPE":0,"NORAD_CAT_ID":60575,"ELEMENT_SET_NO":999,"REV_AT_EPOCH":10306,"BSTAR":0.0001545,"MEAN_MOTION_DOT":0.00001702,"MEAN_MOTION_DDOT":0},{"OBJECT_NAME":"HAWK-11B","OBJECT_ID":"2024-247C","EPOCH":"2026-07-07T09:41:45.447072","CLASSIFICATION_TYPE":"U","MEAN_MOTION":15.30594788,"ECCENTRICITY":0.00040765,"INCLINATION":45.0136,"RA_OF_ASC_NODE":178.8987,"ARG_OF_PERICENTER":337.7618,"MEAN_ANOMALY":22.3089,"EPHEMERIS_TYPE":0,"NORAD_CAT_ID":62379,"ELEMENT_SET_NO":999,"REV_AT_EPOCH":8610,"BSTAR":0.0001647084,"MEAN_MOTION_DOT":0.00004662,"MEAN_MOTION_DDOT":0},{"OBJECT_NAME":"HAWK-11C","OBJECT_ID":"2024-247E","EPOCH":"2026-07-07T08:07:06.477888","CLASSIFICATION_TYPE":"U","MEAN_MOTION":15.30591577,"ECCENTRICITY":0.00049673,"INCLINATION":45.002,"RA_OF_ASC_NODE":178.5981,"ARG_OF_PERICENTER":327.7848,"MEAN_ANOMALY":32.2733,"EPHEMERIS_TYPE":0,"NORAD_CAT_ID":62381,"ELEMENT_SET_NO":999,"REV_AT_EPOCH":8609,"BSTAR":0.0001553275,"MEAN_MOTION_DOT":0.00004379,"MEAN_MOTION_DDOT":0},{"OBJECT_NAME":"HAWK-11A","OBJECT_ID":"2024-247F","EPOCH":"2026-07-07T08:07:13.761408","CLASSIFICATION_TYPE":"U","MEAN_MOTION":15.30592316,"ECCENTRICITY":0.00044699,"INCLINATION":44.992,"RA_OF_ASC_NODE":177.9339,"ARG_OF_PERICENTER":327.082,"MEAN_ANOMALY":32.9785,"EPHEMERIS_TYPE":0,"NORAD_CAT_ID":62382,"ELEMENT_SET_NO":999,"REV_AT_EPOCH":8609,"BSTAR":0.00015464686,"MEAN_MOTION_DOT":0.00004358,"MEAN_MOTION_DDOT":0},{"OBJECT_NAME":"HAWK-12C","OBJECT_ID":"2025-138A","EPOCH":"2026-07-07T19:16:00.958368","CLASSIFICATION_TYPE":"U","MEAN_MOTION":15.18367519,"ECCENTRICITY":0.0015702,"INCLINATION":97.435,"RA_OF_ASC_NODE":190.8975,"ARG_OF_PERICENTER":74.7791,"MEAN_ANOMALY":285.5178,"EPHEMERIS_TYPE":0,"NORAD_CAT_ID":64621,"ELEMENT_SET_NO":999,"REV_AT_EPOCH":5699,"BSTAR":0.00014699,"MEAN_MOTION_DOT":0.00002961,"MEAN_MOTION_DDOT":0},{"OBJECT_NAME":"HAWK-12B","OBJECT_ID":"2025-138B","EPOCH":"2026-07-07T19:16:15.915072","CLASSIFICATION_TYPE":"U","MEAN_MOTION":15.18367027,"ECCENTRICITY":0.0014634,"INCLINATION":97.4472,"RA_OF_ASC_NODE":191.5795,"ARG_OF_PERICENTER":70.3936,"MEAN_ANOMALY":289.8876,"EPHEMERIS_TYPE":0,"NORAD_CAT_ID":64622,"ELEMENT_SET_NO":999,"REV_AT_EPOCH":5699,"BSTAR":0.00014443,"MEAN_MOTION_DOT":0.00002907,"MEAN_MOTION_DDOT":0}]}
